NORAD_CAT_ID,OBJECT_NAME,OBJECT_TYPE,EPOCH,MEAN_MOTION,ECCENTRICITY,INCLINATION,RA_OF_ASC_NODE,ARG_OF_PERICENTER,MEAN_ANOMALY,BSTAR,MEAN_MOTION_DOT,MEAN_MOTION_DDOT,TLE_LINE0,TLE_LINE1,TLE_LINE2,SEMIMAJOR_AXIS,PERIOD,APOGEE,PERIGEE,DECAYED
55671.0,STARLINK-5460,PAYLOAD,2024-05-22 20:51:16,14.98334667,0.0002939,70.0018,18.2206,264.3603,95.7221,3.2582e-05,2.96e-06,0.0,0 STARLINK-5460,1 55671U 23021AV  24143.86894661  .00000296  00000-0  32582-4 0  9995,2 55671  70.0018  18.2206 0002939 264.3603  95.7221 14.98334667 70743,6950.178,96.107,574.086,570.001,0.0
55671.0,STARLINK-5460,PAYLOAD,2024-05-23 01:39:41,14.98336078,0.0002972,70.0003,17.7149,267.2401,92.8418,7.7285e-05,8.29e-06,0.0,0 STARLINK-5460,1 55671U 23021AV  24144.06922718  .00000829  00000-0  77285-4 0  9994,2 55671  70.0003  17.7149 0002972 267.2401  92.8418 14.98336078 71073,6950.174,96.107,574.105,569.974,0.0
55671.0,STARLINK-5460,PAYLOAD,2024-05-23 20:53:17,14.98335149,0.000285,70.0007,15.6951,262.1317,97.9519,0.00013191,1.481e-05,0.0,0 STARLINK-5460,1 55671U 23021AV  24144.87034469  .00001481  00000-0  13191-3 0  9990,2 55671  70.0007  15.6951 0002850 262.1317  97.9519 14.98335149 70895,6950.177,96.107,574.023,570.061,0.0
55671.0,STARLINK-5460,PAYLOAD,2024-05-24 04:53:57,14.98348389,0.0003156,69.9996,14.8511,268.5516,91.5281,0.00025406,2.941e-05,0.0,0 STARLINK-5460,1 55671U 23021AV  24145.20413274  .00002941  00000-0  25406-3 0  9997,2 55671  69.9996  14.8511 0003156 268.5516  91.5281 14.98348389 70945,6950.136,96.106,574.194,569.808,0.0
55671.0,STARLINK-5460,PAYLOAD,2024-05-24 08:06:14,14.98320321,0.0002718,70.0015,14.5147,282.5836,77.5019,-0.00018717,-2.325e-05,0.0,0 STARLINK-5460,1 55671U 23021AV  24145.33767198 -.00002325  00000-0 -18717-3 0  9993,2 55671  70.0015  14.5147 0002718 282.5836  77.5019 14.98320321 70967,6950.223,96.108,573.977,570.199,0.0
55671.0,STARLINK-5460,PAYLOAD,2024-05-24 14:30:46,14.98324564,0.0003084,70.0007,13.841,268.4634,91.6172,-8.9767e-05,-1.164e-05,0.0,0 STARLINK-5460,1 55671U 23021AV  24145.60470861 -.00001164  00000-0 -89767-4 0  9995,2 55671  70.0007  13.8410 0003084 268.4634  91.6172 14.98324564 71308,6950.21,96.107,574.218,569.931,0.0
55671.0,STARLINK-5460,PAYLOAD,2024-05-24 20:55:18,14.98330713,0.0003074,70.0008,13.1678,270.2336,89.8471,4.1721e-05,4.05e-06,0.0,0 STARLINK-5460,1 55671U 23021AV  24145.87174561  .00000405  00000-0  41721-4 0  9995,2 55671  70.0008  13.1678 0003074 270.2336  89.8471 14.98330713 71042,6950.191,96.107,574.192,569.919,0.0
55671.0,STARLINK-5460,PAYLOAD,2024-05-24 22:31:26,14.98333427,0.0003043,70.0009,12.9995,270.3624,89.7186,0.00013105,1.471e-05,0.0,0 STARLINK-5460,1 55671U 23021AV  24145.93850496  .00001471  00000-0  13105-3 0  9998,2 55671  70.0009  12.9995 0003043 270.3624  89.7186 14.98333427 71350,6950.182,96.107,574.162,569.932,0.0
55671.0,STARLINK-5460,PAYLOAD,2024-05-25 14:32:47,14.98327101,0.0003031,70.0008,11.3165,272.0776,88.0035,0.00037169,4.344e-05,0.0,0 STARLINK-5460,1 55671U 23021AV  24146.60610791  .00004344  00000-0  37169-3 0  9993,2 55671  70.0008  11.3165 0003031 272.0776  88.0035 14.98327101 71453,6950.202,96.107,574.173,569.96,0.0
55671.0,STARLINK-5460,PAYLOAD,2024-05-25 20:57:19,14.98336013,0.0003023,70.0009,10.643,272.5276,87.5537,0.00080295,9.502e-05,0.0,0 STARLINK-5460,1 55671U 23021AV  24146.87314759  .00009502  00000-0  80295-3 0  9996,2 55671  70.0009  10.6430 0003023 272.5276  87.5537 14.98336013 71196,6950.174,96.107,574.14,569.938,0.0
55671.0,STARLINK-5460,PAYLOAD,2024-05-26 14:34:48,14.98337696,0.0003013,70.0007,8.7911,271.3297,88.7517,0.00064533,7.617e-05,0.0,0 STARLINK-5460,1 55671U 23021AV  24147.60750666  .00007617  00000-0  64533-3 0  9991,2 55671  70.0007   8.7911 0003013 271.3297  88.7517 14.98337696 71600,6950.169,96.107,574.128,569.94,0.0
55671.0,STARLINK-5460,PAYLOAD,2024-05-26 20:59:20,14.98344008,0.0003052,70.0007,8.1177,269.8652,90.2157,0.00076487,9.048e-05,0.0,0 STARLINK-5460,1 55671U 23021AV  24147.87454435  .00009048  00000-0  76487-3 0  9996,2 55671  70.0007   8.1177 0003052 269.8652  90.2157 14.98344008 71342,6950.15,96.106,574.136,569.893,0.0
55671.0,STARLINK-5460,PAYLOAD,2024-05-26 22:35:28,14.98344944,0.0003042,70.0007,7.9493,270.892,89.189,0.0007491,8.86e-05,0.0,0 STARLINK-5460,1 55671U 23021AV  24147.94130371  .00008860  00000-0  74910-3 0  9994,2 55671  70.0007   7.9493 0003042 270.8920  89.1890 14.98344944 71653,6950.147,96.106,574.126,569.897,0.0
55671.0,STARLINK-5460,PAYLOAD,2024-05-27 05:00:00,14.98338145,0.0002971,70.0007,7.2759,282.0324,78.0502,0.00027788,3.225e-05,0.0,0 STARLINK-5460,1 55671U 23021AV  24148.20834421  .00003225  00000-0  27788-3 0  9992,2 55671  70.0007   7.2759 0002971 282.0324  78.0502 14.98338145 71398,6950.168,96.106,574.098,569.968,0.0
55671.0,STARLINK-5460,PAYLOAD,2024-05-27 14:36:49,14.98331728,0.0003182,70.0007,6.2659,270.2829,89.7966,-4.8433e-05,-6.71e-06,0.0,0 STARLINK-5460,1 55671U 23021AV  24148.60890343 -.00000671  00000-0 -48433-4 0  9996,2 55671  70.0007   6.2659 0003182 270.2829  89.7966 14.98331728 71753,6950.188,96.107,574.264,569.841,0.0
55671.0,STARLINK-5460,PAYLOAD,2024-05-27 22:37:29,14.98336057,0.0003205,70.0008,5.4241,270.0667,90.0125,0.00024134,2.788e-05,0.0,0 STARLINK-5460,1 55671U 23021AV  24148.94270307  .00002788  00000-0  24134-3 0  9995,2 55671  70.0008   5.4241 0003205 270.0667  90.0125 14.98336057 71804,6950.174,96.107,574.267,569.812,0.0
55671.0,STARLINK-5460,PAYLOAD,2024-05-28 05:02:01,14.98334057,0.0003222,70.0008,4.7507,270.8026,89.2763,0.00021828,2.513e-05,0.0,0 STARLINK-5460,1 55671U 23021AV  24149.20974367  .00002513  00000-0  21828-3 0  9995,2 55671  70.0008   4.7507 0003222 270.8026  89.2763 14.98334057 71544,6950.18,96.107,574.285,569.806,0.0
55671.0,STARLINK-5460,PAYLOAD,2024-05-28 14:38:50,14.98334069,0.0003201,70.0008,3.7406,270.7903,89.2889,0.00018883,2.161e-05,0.0,0 STARLINK-5460,1 55671U 23021AV  24149.61030399  .00002161  00000-0  18883-3 0  9994,2 55671  70.0008   3.7406 0003201 270.7903  89.2889 14.98334069 71903,6950.18,96.107,574.27,569.821,0.0
55671.0,STARLINK-5460,PAYLOAD,2024-05-28 22:39:30,14.98335474,0.0003289,70.0009,2.899,270.3285,89.7497,0.00042208,4.948e-05,0.0,0 STARLINK-5460,1 55671U 23021AV  24149.94410377  .00004948  00000-0  42208-3 0  9991,2 55671  70.0009   2.8990 0003289 270.3285  89.7497 14.98335474 71953,6950.176,96.107,574.327,569.755,0.0
55671.0,STARLINK-5460,PAYLOAD,2024-05-29 05:04:02,14.98339689,0.0003306,70.001,2.2256,270.6536,89.4244,0.00050846,5.981e-05,0.0,0 STARLINK-5460,1 55671U 23021AV  24150.21114206  .00005981  00000-0  50846-3 0  9990,2 55671  70.0010   2.2256 0003306 270.6536  89.4244 14.98339689 71696,6950.163,96.106,574.326,569.73,0.0
55671.0,STARLINK-5460,PAYLOAD,2024-05-29 13:04:43,14.98336213,0.0003288,70.0011,1.3838,269.9956,90.0826,0.00030673,3.569e-05,0.0,0 STARLINK-5460,1 55671U 23021AV  24150.54494255  .00003569  00000-0  30673-3 0  9997,2 55671  70.0011   1.3838 0003288 269.9956  90.0826 14.98336213 72043,6950.174,96.107,574.324,569.753,0.0
55671.0,STARLINK-5460,PAYLOAD,2024-05-29 21:05:23,14.98338158,0.0003283,70.0011,0.5422,270.2426,89.8357,0.00033227,3.875e-05,0.0,0 STARLINK-5460,1 55671U 23021AV  24150.87874199  .00003875  00000-0  33227-3 0  9990,2 55671  70.0011   0.5422 0003283 270.2426  89.8357 14.98338158 71791,6950.168,96.106,574.314,569.751,0.0
55671.0,STARLINK-5460,PAYLOAD,2024-05-29 22:41:31,14.98340471,0.0003285,70.001,0.3739,270.3645,89.7138,0.0003935,4.607e-05,0.0,0 STARLINK-5460,1 55671U 23021AV  24150.94550105  .00004607  00000-0  39350-3 0  9993,2 55671  70.0010   0.3739 0003285 270.3645  89.7138 14.98340471 72108,6950.161,96.106,574.309,569.742,0.0
55671.0,STARLINK-5460,PAYLOAD,2024-05-30 14:42:51,14.98340569,0.00033,70.0012,358.6905,271.3778,88.7003,0.00035111,4.1e-05,0.0,0 STARLINK-5460,1 55671U 23021AV  24151.61309960  .00004100  00000-0  35111-3 0  9998,2 55671  70.0012 358.6905 0003300 271.3778  88.7003 14.98340569 72209,6950.16,96.106,574.319,569.732,0.0
55671.0,STARLINK-5460,PAYLOAD,2024-05-30 17:55:07,14.98342134,0.0003276,70.0014,358.3539,272.5175,87.5609,0.00039223,4.592e-05,0.0,0 STARLINK-5460,1 55671U 23021AV  24151.74661882  .00004592  00000-0  39223-3 0  9999,2 55671  70.0014 358.3539 0003276 272.5175  87.5609 14.98342134 72228,6950.155,96.106,574.297,569.743,0.0
55671.0,STARLINK-5460,PAYLOAD,2024-05-31 00:19:39,14.98350455,0.0003288,70.0012,357.6805,271.7061,88.3721,0.0006393,7.547e-05,0.0,0 STARLINK-5460,1 55671U 23021AV  24152.01365528  .00007547  00000-0  63930-3 0  9993,2 55671  70.0012 357.6805 0003288 271.7061  88.3721 14.98350455 71961,6950.13,96.106,574.28,569.709,0.0
55671.0,STARLINK-5460,PAYLOAD,2024-05-31 14:44:52,14.98341373,0.0003241,70.0013,356.1653,272.7437,87.3351,0.00031579,3.678e-05,0.0,0 STARLINK-5460,1 55671U 23021AV  24152.61449552  .00003678  00000-0  31579-3 0  9994,2 55671  70.0013 356.1653 0003241 272.7437  87.3351 14.98341373 72355,6950.158,96.106,574.275,569.77,0.0
55671.0,STARLINK-5460,PAYLOAD,2024-05-31 21:09:24,14.98337833,0.0003191,70.0011,355.4933,267.9876,92.0917,0.00013649,1.536e-05,0.0,0 STARLINK-5460,1 55671U 23021AV  24152.88153512  .00001536  00000-0  13649-3 0  9990,2 55671  70.0011 355.4933 0003191 267.9876  92.0917 14.98337833 72091,6950.169,96.106,574.251,569.816,0.0
55671.0,STARLINK-5460,PAYLOAD,2024-05-31 22:45:32,14.98337556,0.0003175,70.0011,355.3248,267.5372,92.5423,0.00014079,1.588e-05,0.0,0 STARLINK-5460,1 55671U 23021AV  24152.94829492  .00001588  00000-0  14079-3 0  9999,2 55671  70.0011 355.3248 0003175 267.5372  92.5423 14.98337556 72402,6950.17,96.107,574.241,569.828,0.0
55671.0,STARLINK-5460,PAYLOAD,2024-06-01 14:46:53,14.98322641,0.0003193,70.0012,353.6415,267.7636,92.3157,-0.00015289,-1.916e-05,0.0,0 STARLINK-5460,1 55671U 23021AV  24153.61590220 -.00001916  00000-0 -15289-3 0  9999,2 55671  70.0012 353.6415 0003193 267.7636  92.3157 14.98322641 72507,6950.216,96.107,574.3,569.861,0.0
